CCSDS_OMM_VERS = 2.0
CREATION_DATE  = 
ORIGINATOR     = 

OBJECT_NAME    = SL-16 R/B
OBJECT_ID      = 1998-043G
CENTER_NAME    = EARTH
REF_FRAME      = TEME
TIME_SYSTEM    = UTC
MEAN_ELEMENT_THEORY = SGP/SGP4

EPOCH          = 2025-12-21T20:23:26.614176
MEAN_MOTION    = 14.26027450
ECCENTRICITY   = .0008892
INCLINATION    = 98.8139
RA_OF_ASC_NODE = 303.7192
ARG_OF_PERICENTER = 237.1948
MEAN_ANOMALY   = 122.8375

EPHEMERIS_TYPE = 0
CLASSIFICATION_TYPE = U
NORAD_CAT_ID   = 25400
ELEMENT_SET_NO = 999
REV_AT_EPOCH   = 42789
BSTAR          = .3402E-4
MEAN_MOTION_DOT = .36E-6
MEAN_MOTION_DDOT = 0

CCSDS_OMM_VERS = 2.0
CREATION_DATE  = 
ORIGINATOR     = 

OBJECT_NAME    = SL-16 R/B
OBJECT_ID      = 1998-045B
CENTER_NAME    = EARTH
REF_FRAME      = TEME
TIME_SYSTEM    = UTC
MEAN_ELEMENT_THEORY = SGP/SGP4

EPOCH          = 2025-12-21T17:38:42.708192
MEAN_MOTION    = 14.16175849
ECCENTRICITY   = .0006439
INCLINATION    = 71.0116
RA_OF_ASC_NODE = 345.5089
ARG_OF_PERICENTER = 161.7672
MEAN_ANOMALY   = 198.3683

EPHEMERIS_TYPE = 0
CLASSIFICATION_TYPE = U
NORAD_CAT_ID   = 25407
ELEMENT_SET_NO = 999
REV_AT_EPOCH   = 41606
BSTAR          = .13694E-3
MEAN_MOTION_DOT = .223E-5
MEAN_MOTION_DDOT = 0

CCSDS_OMM_VERS = 2.0
CREATION_DATE  = 
ORIGINATOR     = 

OBJECT_NAME    = ISS (ZARYA)
OBJECT_ID      = 1998-067A
CENTER_NAME    = EARTH
REF_FRAME      = TEME
TIME_SYSTEM    = UTC
MEAN_ELEMENT_THEORY = SGP/SGP4

EPOCH          = 2025-12-21T13:40:08.668128
MEAN_MOTION    = 15.49703708
ECCENTRICITY   = .0003166
INCLINATION    = 51.6324
RA_OF_ASC_NODE = 98.7522
ARG_OF_PERICENTER = 281.5679
MEAN_ANOMALY   = 78.4955

EPHEMERIS_TYPE = 0
CLASSIFICATION_TYPE = U
NORAD_CAT_ID   = 25544
ELEMENT_SET_NO = 999
REV_AT_EPOCH   = 54422
BSTAR          = .16837E-3
MEAN_MOTION_DOT = .9066E-4
MEAN_MOTION_DDOT = 0

CCSDS_OMM_VERS = 2.0
CREATION_DATE  = 
ORIGINATOR     = 

OBJECT_NAME    = CZ-4B R/B
OBJECT_ID      = 1999-025C
CENTER_NAME    = EARTH
REF_FRAME      = TEME
TIME_SYSTEM    = UTC
MEAN_ELEMENT_THEORY = SGP/SGP4

EPOCH          = 2025-12-21T17:14:15.286272
MEAN_MOTION    = 14.18245744
ECCENTRICITY   = .0036674
INCLINATION    = 98.6755
RA_OF_ASC_NODE = 36.7970
ARG_OF_PERICENTER = 207.7185
MEAN_ANOMALY   = 260.7050

EPHEMERIS_TYPE = 0
CLASSIFICATION_TYPE = U
NORAD_CAT_ID   = 25732
ELEMENT_SET_NO = 999
REV_AT_EPOCH   = 37711
BSTAR          = .44485E-4
MEAN_MOTION_DOT = .49E-6
MEAN_MOTION_DDOT = 0

CCSDS_OMM_VERS = 2.0
CREATION_DATE  = 
ORIGINATOR     = 

OBJECT_NAME    = OKEAN-O
OBJECT_ID      = 1999-039A
CENTER_NAME    = EARTH
REF_FRAME      = TEME
TIME_SYSTEM    = UTC
MEAN_ELEMENT_THEORY = SGP/SGP4

EPOCH          = 2025-12-21T17:06:34.240320
MEAN_MOTION    = 14.80175995
ECCENTRICITY   = .0001024
INCLINATION    = 97.9590
RA_OF_ASC_NODE = 51.3366
ARG_OF_PERICENTER = 112.1798
MEAN_ANOMALY   = 247.9522

EPHEMERIS_TYPE = 0
CLASSIFICATION_TYPE = U
NORAD_CAT_ID   = 25860
ELEMENT_SET_NO = 999
REV_AT_EPOCH   = 42285
BSTAR          = .88351E-4
MEAN_MOTION_DOT = .619E-5
MEAN_MOTION_DDOT = 0

CCSDS_OMM_VERS = 2.0
CREATION_DATE  = 
ORIGINATOR     = 

OBJECT_NAME    = SL-16 R/B
OBJECT_ID      = 1999-039B
CENTER_NAME    = EARTH
REF_FRAME      = TEME
TIME_SYSTEM    = UTC
MEAN_ELEMENT_THEORY = SGP/SGP4

EPOCH          = 2025-12-21T18:24:20.750976
MEAN_MOTION    = 14.81598401
ECCENTRICITY   = .0015606
INCLINATION    = 98.0113
RA_OF_ASC_NODE = 49.9183
ARG_OF_PERICENTER = 146.1693
MEAN_ANOMALY   = 214.0518

EPHEMERIS_TYPE = 0
CLASSIFICATION_TYPE = U
NORAD_CAT_ID   = 25861
ELEMENT_SET_NO = 999
REV_AT_EPOCH   = 42532
BSTAR          = .66351E-4
MEAN_MOTION_DOT = .468E-5
MEAN_MOTION_DDOT = 0

CCSDS_OMM_VERS = 2.0
CREATION_DATE  = 
ORIGINATOR     = 

OBJECT_NAME    = DELTA 2 R/B
OBJECT_ID      = 1999-041E
CENTER_NAME    = EARTH
REF_FRAME      = TEME
TIME_SYSTEM    = UTC
MEAN_ELEMENT_THEORY = SGP/SGP4

EPOCH          = 2025-12-21T03:21:30.313152
MEAN_MOTION    = 14.11421328
ECCENTRICITY   = .05045285
INCLINATION    = 51.7609
RA_OF_ASC_NODE = 254.9130
ARG_OF_PERICENTER = 116.5231
MEAN_ANOMALY   = 248.8336

EPHEMERIS_TYPE = 0
CLASSIFICATION_TYPE = U
NORAD_CAT_ID   = 25876
ELEMENT_SET_NO = 999
REV_AT_EPOCH   = 35193
BSTAR          = .13483358E-3
MEAN_MOTION_DOT = .588E-5
MEAN_MOTION_DDOT = 0

CCSDS_OMM_VERS = 2.0
CREATION_DATE  = 
ORIGINATOR     = 

OBJECT_NAME    = HELIOS 1B
OBJECT_ID      = 1999-064A
CENTER_NAME    = EARTH
REF_FRAME      = TEME
TIME_SYSTEM    = UTC
MEAN_ELEMENT_THEORY = SGP/SGP4

EPOCH          = 2025-12-21T16:24:59.658048
MEAN_MOTION    = 14.87313983
ECCENTRICITY   = .0001179
INCLINATION    = 98.1757
RA_OF_ASC_NODE = 250.6149
ARG_OF_PERICENTER = 32.2316
MEAN_ANOMALY   = 327.8971

EPHEMERIS_TYPE = 0
CLASSIFICATION_TYPE = U
NORAD_CAT_ID   = 25977
ELEMENT_SET_NO = 999
REV_AT_EPOCH   = 67366
BSTAR          = .16103E-3
MEAN_MOTION_DOT = .1395E-4
MEAN_MOTION_DDOT = 0

CCSDS_OMM_VERS = 2.0
CREATION_DATE  = 
ORIGINATOR     = 

OBJECT_NAME    = TERRA
OBJECT_ID      = 1999-068A
CENTER_NAME    = EARTH
REF_FRAME      = TEME
TIME_SYSTEM    = UTC
MEAN_ELEMENT_THEORY = SGP/SGP4

EPOCH          = 2025-12-21T18:50:41.083008
MEAN_MOTION    = 14.60911248
ECCENTRICITY   = .0003506
INCLINATION    = 97.9735
RA_OF_ASC_NODE = 47.1372
ARG_OF_PERICENTER = 76.4360
MEAN_ANOMALY   = 38.2198

EPHEMERIS_TYPE = 0
CLASSIFICATION_TYPE = U
NORAD_CAT_ID   = 25994
ELEMENT_SET_NO = 999
REV_AT_EPOCH   = 38370
BSTAR          = .87647E-4
MEAN_MOTION_DOT = .384E-5
MEAN_MOTION_DDOT = 0

CCSDS_OMM_VERS = 2.0
CREATION_DATE  = 
ORIGINATOR     = 

OBJECT_NAME    = SL-16 R/B
OBJECT_ID      = 2000-006B
CENTER_NAME    = EARTH
REF_FRAME      = TEME
TIME_SYSTEM    = UTC
MEAN_ELEMENT_THEORY = SGP/SGP4

EPOCH          = 2025-12-21T17:31:43.649184
MEAN_MOTION    = 14.15808338
ECCENTRICITY   = .0018574
INCLINATION    = 71.0017
RA_OF_ASC_NODE = 261.7541
ARG_OF_PERICENTER = 296.4354
MEAN_ANOMALY   = 63.4863

EPHEMERIS_TYPE = 0
CLASSIFICATION_TYPE = U
NORAD_CAT_ID   = 26070
ELEMENT_SET_NO = 999
REV_AT_EPOCH   = 33752
BSTAR          = -.77524E-5
MEAN_MOTION_DOT = -.63E-6
MEAN_MOTION_DDOT = 0

CCSDS_OMM_VERS = 2.0
CREATION_DATE  = 
ORIGINATOR     = 

OBJECT_NAME    = TITAN 4B R/B
OBJECT_ID      = 2000-047B
CENTER_NAME    = EARTH
REF_FRAME      = TEME
TIME_SYSTEM    = UTC
MEAN_ELEMENT_THEORY = SGP/SGP4

EPOCH          = 2025-12-21T19:47:50.150400
MEAN_MOTION    = 15.08840966
ECCENTRICITY   = .0038273
INCLINATION    = 67.9895
RA_OF_ASC_NODE = 259.3387
ARG_OF_PERICENTER = 133.6296
MEAN_ANOMALY   = 226.8039

EPHEMERIS_TYPE = 0
CLASSIFICATION_TYPE = U
NORAD_CAT_ID   = 26474
ELEMENT_SET_NO = 999
REV_AT_EPOCH   = 38116
BSTAR          = .17009E-3
MEAN_MOTION_DOT = .2592E-4
MEAN_MOTION_DDOT = 0

CCSDS_OMM_VERS = 2.0
CREATION_DATE  = 
ORIGINATOR     = 

OBJECT_NAME    = ENVISAT
OBJECT_ID      = 2002-009A
CENTER_NAME    = EARTH
REF_FRAME      = TEME
TIME_SYSTEM    = UTC
MEAN_ELEMENT_THEORY = SGP/SGP4

EPOCH          = 2025-12-18T22:44:27.718656
MEAN_MOTION    = 14.39001403
ECCENTRICITY   = .0001126
INCLINATION    = 98.3609
RA_OF_ASC_NODE = 303.5309
ARG_OF_PERICENTER = 84.8976
MEAN_ANOMALY   = 298.2993

EPHEMERIS_TYPE = 0
CLASSIFICATION_TYPE = U
NORAD_CAT_ID   = 27386
ELEMENT_SET_NO = 999
REV_AT_EPOCH   = 24756
BSTAR          = .39999337E-4
MEAN_MOTION_DOT = .81E-6
MEAN_MOTION_DDOT = 0

