SL-16 R/B               
1 25400U 98043G   25355.84961359  .00000036  00000+0  34020-4 0  9991
2 25400  98.8139 303.7192 0008892 237.1948 122.8375 14.26027450427896
SL-16 R/B               
1 25407U 98045B   25355.73521653  .00000223  00000+0  13694-3 0  9998
2 25407  71.0116 345.5089 0006439 161.7672 198.3683 14.16175849416063
ISS (ZARYA)             
1 25544U 98067A   25355.56954477  .00009066  00000+0  16837-3 0  9995
2 25544  51.6324  98.7522 0003166 281.5679  78.4955 15.49703708544229
CZ-4B R/B               
1 25732U 99025C   25355.71823248  .00000049  00000+0  44485-4 0  9990
2 25732  98.6755  36.7970 0036674 207.7185 260.7050 14.18245744377118
OKEAN-O                 
1 25860U 99039A   25355.71289630  .00000619  00000+0  88351-4 0  9991
2 25860  97.9590  51.3366 0001024 112.1798 247.9522 14.80175995422853
SL-16 R/B               
1 25861U 99039B   25355.76690684  .00000468  00000+0  66351-4 0  9990
2 25861  98.0113  49.9183 0015606 146.1693 214.0518 14.81598401425326
DELTA 2 R/B             
1 25876U 99041E   25355.13993418  .00000588  00000+0  13483-3 0  9991
2 25876  51.7609 254.9130 0504528 116.5231 248.8336 14.11421328351937
HELIOS 1B               
1 25977U 99064A   25355.68402382  .00001395  00000+0  16103-3 0  9992
2 25977  98.1757 250.6149 0001179  32.2316 327.8971 14.87313983673663
TERRA                   
1 25994U 99068A   25355.78519772  .00000384  00000+0  87647-4 0  9997
2 25994  97.9735  47.1372 0003506  76.4360  38.2198 14.60911248383703
SL-16 R/B               
1 26070U 00006B   25355.73036631 -.00000063  00000+0 -77524-5 0  9990
2 26070  71.0017 261.7541 0018574 296.4354  63.4863 14.15808338337528
TITAN 4B R/B            
1 26474U 00047B   25355.82488600  .00002592  00000+0  17009-3 0  9997
2 26474  67.9895 259.3387 0038273 133.6296 226.8039 15.08840966381165
ENVISAT                 
1 27386U 02009A   25352.94754304  .00000081  00000+0  39999-4 0  9991
2 27386  98.3609 303.5309 0001126  84.8976 298.2993 14.39001403247569
